[Satellite]
VERSION=1.1
NAME=ICON
NICKNAME=ICON
TLE1=1 44628U 19068A   22342.07121809  .00002303  00000+0  19347-3 0  9993
TLE2=2 44628  26.9881 253.3416 0018401  77.4231 282.8384 14.93635510172543
STATUS=0
